STARLINK-4699           
1 53716U 22107S   26060.04869778 -.00000087  00000+0  12658-4 0  9998
2 53716  53.2163 292.5912 0001495  93.3184 266.7979 15.08840682193103
STARLINK-4695           
1 53718U 22107U   26060.03868604  .00000404  00000+0  43451-4 0  9993
2 53718  53.2175 293.2221 0001510  86.0539 274.0626 15.08842444193097
STARLINK-4644           
1 53719U 22107V   26059.97418441  .00001168  00000+0  91478-4 0  9995
2 53719  53.2164 262.8704 0001454 104.6076 255.5077 15.08842420193520
STARLINK-4642           
1 53720U 22107W   26060.05607099 -.00001880  00000+0 -10008-3 0  9999
2 53720  53.2178 292.6374 0000570  94.5891 265.5167 15.08841618193115
STARLINK-4707           
1 53721U 22107X   26060.12968068  .00005469  00000+0  36146-3 0  9990
2 53721  53.2176 292.3874 0001472  66.8557 293.2590 15.08840637193128
STARLINK-4700           
1 53722U 22107Y   26059.87208508  .00001188  00000+0  92749-4 0  9993
2 53722  53.2172 293.6180 0001416  92.5996 267.5159 15.08837187193075
STARLINK-4705           
1 53723U 22107Z   26060.04503057  .00002472  00000+0  17340-3 0  9992
2 53723  53.2173 292.5739 0001488  95.0832 265.0330 15.08832541193254
STARLINK-4663           
1 53724U 22107AA  26060.05974749 -.00007259  00000+0 -43807-3 0  9991
2 53724  53.2170 292.6607 0001447 103.1095 257.0059 15.08871713193112
STARLINK-4697           
1 53726U 22107AC  26059.93464343  .00000876  00000+0  73141-4 0  9993
2 53726  53.2171 293.3018 0001416  88.5324 271.5830 15.08836643193094
STARLINK-4701           
1 53727U 22107AD  26060.01194025  .00000111  00000+0  25059-4 0  9999
2 53727  53.2172 293.0727 0001363  92.7533 267.3615 15.08833149193249
STARLINK-4640           
1 53728U 22107AE  26060.07449326  .00000008  00000+0  18588-4 0  9997
2 53728  53.2166 292.7524 0001443  93.7556 266.3601 15.08835536193256
STARLINK-4651           
1 53729U 22107AF  26060.02299358  .00001163  00000+0  91142-4 0  9991
2 53729  53.2171 293.1395 0001689  78.3331 281.7851 15.08854095193277
STARLINK-4641           
1 53730U 22107AG  26060.47932082  .00002345  00000+0  16537-3 0  9997
2 53730  53.2163 291.0137 0001357 101.9201 258.1943 15.08836338193317
STARLINK-4636           
1 53731U 22107AH  26060.03821329  .00011254  00000+0  67517-3 0  9994
2 53731  53.2139 292.5313 0005860 114.9343 245.2260 15.11391069193283
STARLINK-4661           
1 53732U 22107AJ  26060.02026529  .00001306  00000+0  10017-3 0  9993
2 53732  53.2173 293.1221 0001310  87.7251 272.3892 15.08835880193246
STARLINK-4574           
1 53733U 22107AK  26059.96780740  .00000743  00000+0  64745-4 0  9999
2 53733  53.2172 293.5051 0001130  88.8380 271.2742 15.08837387193264
