[{"OBJECT_NAME":"STARLINK-4699","OBJECT_ID":"2022-107S","EPOCH":"2026-03-01T01:10:07.488192","MEAN_MOTION":15.08840682,"ECCENTRICITY":0.00014952,"INCLINATION":53.2163,"RA_OF_ASC_NODE":292.5912,"ARG_OF_PERICENTER":93.3184,"MEAN_ANOMALY":266.7979,"EPHEMERIS_TYPE":0,"CLASSIFICATION_TYPE":"U","NORAD_CAT_ID":53716,"ELEMENT_SET_NO":999,"REV_AT_EPOCH":19310,"BSTAR":1.2657901e-5,"MEAN_MOTION_DOT":-8.7e-7,"MEAN_MOTION_DDOT":0},{"OBJECT_NAME":"STARLINK-4695","OBJECT_ID":"2022-107U","EPOCH":"2026-03-01T00:55:42.473856","MEAN_MOTION":15.08842444,"ECCENTRICITY":0.00015105,"INCLINATION":53.2175,"RA_OF_ASC_NODE":293.2221,"ARG_OF_PERICENTER":86.0539,"MEAN_ANOMALY":274.0626,"EPHEMERIS_TYPE":0,"CLASSIFICATION_TYPE":"U","NORAD_CAT_ID":53718,"ELEMENT_SET_NO":999,"REV_AT_EPOCH":19309,"BSTAR":4.3451274e-5,"MEAN_MOTION_DOT":4.04e-6,"MEAN_MOTION_DDOT":0},{"OBJECT_NAME":"STARLINK-4644","OBJECT_ID":"2022-107V","EPOCH":"2026-02-28T23:22:49.533024","MEAN_MOTION":15.0884242,"ECCENTRICITY":0.0001454,"INCLINATION":53.2164,"RA_OF_ASC_NODE":262.8704,"ARG_OF_PERICENTER":104.6076,"MEAN_ANOMALY":255.5077,"EPHEMERIS_TYPE":0,"CLASSIFICATION_TYPE":"U","NORAD_CAT_ID":53719,"ELEMENT_SET_NO":999,"REV_AT_EPOCH":19352,"BSTAR":9.1478e-5,"MEAN_MOTION_DOT":1.168e-5,"MEAN_MOTION_DDOT":0},{"OBJECT_NAME":"STARLINK-4642","OBJECT_ID":"2022-107W","EPOCH":"2026-03-01T01:20:44.533536","MEAN_MOTION":15.08841618,"ECCENTRICITY":5.706e-5,"INCLINATION":53.2178,"RA_OF_ASC_NODE":292.6374,"ARG_OF_PERICENTER":94.5891,"MEAN_ANOMALY":265.5167,"EPHEMERIS_TYPE":0,"CLASSIFICATION_TYPE":"U","NORAD_CAT_ID":53720,"ELEMENT_SET_NO":999,"REV_AT_EPOCH":19311,"BSTAR":-0.00010008361,"MEAN_MOTION_DOT":-1.88e-5,"MEAN_MOTION_DDOT":0},{"OBJECT_NAME":"STARLINK-4707","OBJECT_ID":"2022-107X","EPOCH":"2026-03-01T03:06:44.410752","MEAN_MOTION":15.08840637,"ECCENTRICITY":0.00014722,"INCLINATION":53.2176,"RA_OF_ASC_NODE":292.3874,"ARG_OF_PERICENTER":66.8557,"MEAN_ANOMALY":293.259,"EPHEMERIS_TYPE":0,"CLASSIFICATION_TYPE":"U","NORAD_CAT_ID":53721,"ELEMENT_SET_NO":999,"REV_AT_EPOCH":19312,"BSTAR":0.00036145688,"MEAN_MOTION_DOT":5.469e-5,"MEAN_MOTION_DDOT":0},{"OBJECT_NAME":"STARLINK-4700","OBJECT_ID":"2022-107Y","EPOCH":"2026-02-28T20:55:48.150912","MEAN_MOTION":15.08837187,"ECCENTRICITY":0.0001416,"INCLINATION":53.2172,"RA_OF_ASC_NODE":293.618,"ARG_OF_PERICENTER":92.5996,"MEAN_ANOMALY":267.5159,"EPHEMERIS_TYPE":0,"CLASSIFICATION_TYPE":"U","NORAD_CAT_ID":53722,"ELEMENT_SET_NO":999,"REV_AT_EPOCH":19307,"BSTAR":9.2749e-5,"MEAN_MOTION_DOT":1.188e-5,"MEAN_MOTION_DDOT":0},{"OBJECT_NAME":"STARLINK-4705","OBJECT_ID":"2022-107Z","EPOCH":"2026-03-01T01:04:50.641248","MEAN_MOTION":15.08832541,"ECCENTRICITY":0.00014887,"INCLINATION":53.2173,"RA_OF_ASC_NODE":292.5739,"ARG_OF_PERICENTER":95.0832,"MEAN_ANOMALY":265.033,"EPHEMERIS_TYPE":0,"CLASSIFICATION_TYPE":"U","NORAD_CAT_ID":53723,"ELEMENT_SET_NO":999,"REV_AT_EPOCH":19325,"BSTAR":0.00017340037,"MEAN_MOTION_DOT":2.472e-5,"MEAN_MOTION_DDOT":0},{"OBJECT_NAME":"STARLINK-4663","OBJECT_ID":"2022-107AA","EPOCH":"2026-03-01T01:26:02.183136","MEAN_MOTION":15.08871713,"ECCENTRICITY":0.0001447,"INCLINATION":53.217,"RA_OF_ASC_NODE":292.6607,"ARG_OF_PERICENTER":103.1095,"MEAN_ANOMALY":257.0059,"EPHEMERIS_TYPE":0,"CLASSIFICATION_TYPE":"U","NORAD_CAT_ID":53724,"ELEMENT_SET_NO":999,"REV_AT_EPOCH":19311,"BSTAR":-0.00043807027,"MEAN_MOTION_DOT":-7.259e-5,"MEAN_MOTION_DDOT":0},{"OBJECT_NAME":"STARLINK-4697","OBJECT_ID":"2022-107AC","EPOCH":"2026-02-28T22:25:53.192352","MEAN_MOTION":15.08836643,"ECCENTRICITY":0.0001416,"INCLINATION":53.2171,"RA_OF_ASC_NODE":293.3018,"ARG_OF_PERICENTER":88.5324,"MEAN_ANOMALY":271.583,"EPHEMERIS_TYPE":0,"CLASSIFICATION_TYPE":"U","NORAD_CAT_ID":53726,"ELEMENT_SET_NO":999,"REV_AT_EPOCH":19309,"BSTAR":7.3141e-5,"MEAN_MOTION_DOT":8.76e-6,"MEAN_MOTION_DDOT":0},{"OBJECT_NAME":"STARLINK-4701","OBJECT_ID":"2022-107AD","EPOCH":"2026-03-01T00:17:11.637600","MEAN_MOTION":15.08833149,"ECCENTRICITY":0.00013635,"INCLINATION":53.2172,"RA_OF_ASC_NODE":293.0727,"ARG_OF_PERICENTER":92.7533,"MEAN_ANOMALY":267.3615,"EPHEMERIS_TYPE":0,"CLASSIFICATION_TYPE":"U","NORAD_CAT_ID":53727,"ELEMENT_SET_NO":999,"REV_AT_EPOCH":19324,"BSTAR":2.5058654e-5,"MEAN_MOTION_DOT":1.11e-6,"MEAN_MOTION_DDOT":0},{"OBJECT_NAME":"STARLINK-4640","OBJECT_ID":"2022-107AE","EPOCH":"2026-03-01T01:47:16.217664","MEAN_MOTION":15.08835536,"ECCENTRICITY":0.00014436,"INCLINATION":53.2166,"RA_OF_ASC_NODE":292.7524,"ARG_OF_PERICENTER":93.7556,"MEAN_ANOMALY":266.3601,"EPHEMERIS_TYPE":0,"CLASSIFICATION_TYPE":"U","NORAD_CAT_ID":53728,"ELEMENT_SET_NO":999,"REV_AT_EPOCH":19325,"BSTAR":1.8588259e-5,"MEAN_MOTION_DOT":8.0e-8,"MEAN_MOTION_DDOT":0},{"OBJECT_NAME":"STARLINK-4651","OBJECT_ID":"2022-107AF","EPOCH":"2026-03-01T00:33:06.645312","MEAN_MOTION":15.08854095,"ECCENTRICITY":0.00016895,"INCLINATION":53.2171,"RA_OF_ASC_NODE":293.1395,"ARG_OF_PERICENTER":78.3331,"MEAN_ANOMALY":281.7851,"EPHEMERIS_TYPE":0,"CLASSIFICATION_TYPE":"U","NORAD_CAT_ID":53729,"ELEMENT_SET_NO":999,"REV_AT_EPOCH":19327,"BSTAR":9.1141803e-5,"MEAN_MOTION_DOT":1.163e-5,"MEAN_MOTION_DDOT":0},{"OBJECT_NAME":"STARLINK-4641","OBJECT_ID":"2022-107AG","EPOCH":"2026-03-01T11:30:13.318848","MEAN_MOTION":15.08836338,"ECCENTRICITY":0.0001357,"INCLINATION":53.2163,"RA_OF_ASC_NODE":291.0137,"ARG_OF_PERICENTER":101.9201,"MEAN_ANOMALY":258.1943,"EPHEMERIS_TYPE":0,"CLASSIFICATION_TYPE":"U","NORAD_CAT_ID":53730,"ELEMENT_SET_NO":999,"REV_AT_EPOCH":19331,"BSTAR":0.00016537,"MEAN_MOTION_DOT":2.345e-5,"MEAN_MOTION_DDOT":0},{"OBJECT_NAME":"STARLINK-4636","OBJECT_ID":"2022-107AH","EPOCH":"2026-03-01T00:55:01.628256","MEAN_MOTION":15.11391069,"ECCENTRICITY":0.00058602,"INCLINATION":53.2139,"RA_OF_ASC_NODE":292.5313,"ARG_OF_PERICENTER":114.9343,"MEAN_ANOMALY":245.226,"EPHEMERIS_TYPE":0,"CLASSIFICATION_TYPE":"U","NORAD_CAT_ID":53731,"ELEMENT_SET_NO":999,"REV_AT_EPOCH":19328,"BSTAR":0.00067517445,"MEAN_MOTION_DOT":0.00011254,"MEAN_MOTION_DDOT":0},{"OBJECT_NAME":"STARLINK-4661","OBJECT_ID":"2022-107AJ","EPOCH":"2026-03-01T00:29:10.921056","MEAN_MOTION":15.0883588,"ECCENTRICITY":0.00013106,"INCLINATION":53.2173,"RA_OF_ASC_NODE":293.1221,"ARG_OF_PERICENTER":87.7251,"MEAN_ANOMALY":272.3892,"EPHEMERIS_TYPE":0,"CLASSIFICATION_TYPE":"U","NORAD_CAT_ID":53732,"ELEMENT_SET_NO":999,"REV_AT_EPOCH":19324,"BSTAR":0.00010016693,"MEAN_MOTION_DOT":1.306e-5,"MEAN_MOTION_DDOT":0},{"OBJECT_NAME":"STARLINK-4574","OBJECT_ID":"2022-107AK","EPOCH":"2026-02-28T23:13:38.559360","MEAN_MOTION":15.08837387,"ECCENTRICITY":0.000113,"INCLINATION":53.2172,"RA_OF_ASC_NODE":293.5051,"ARG_OF_PERICENTER":88.838,"MEAN_ANOMALY":271.2742,"EPHEMERIS_TYPE":0,"CLASSIFICATION_TYPE":"U","NORAD_CAT_ID":53733,"ELEMENT_SET_NO":999,"REV_AT_EPOCH":19326,"BSTAR":6.4745e-5,"MEAN_MOTION_DOT":7.43e-6,"MEAN_MOTION_DDOT":0}]
